[
    {
        "Altitude(m)": 622205.8659625483,
        "Argument of Periapsis(deg)": 0.0,
        "Eccentricity": 0.0,
        "Inclination(deg)": 60.0,
        "Latitude(deg)": -52.16243119733815,
        "Longitude(deg)": 7.700545857159031,
        "Mean Anomaly(deg)": -114.5455,
        "RAAN(deg)": 240.0,
        "Satellite Name": "Test1 1071",
        "Satellite Number": 1071,
        "Semi-Major Axis(m)": 6980739.136638005,
        "Time(s)": 0
    },
    {
        "Altitude(m)": 622344.7719272469,
        "Argument of Periapsis(deg)": 0.00010418945913296404,
        "Eccentricity": 0.0,
        "Inclination(deg)": 60.0,
        "Latitude(deg)": -52.5200091817647,
        "Longitude(deg)": 8.4817601000863,
        "Mean Anomaly(deg)": -113.92539385453817,
        "RAAN(deg)": 239.99957995086024,
        "Satellite Name": "Test1 1071",
        "Satellite Number": 1071,
        "Semi-Major Axis(m)": 6980739.136638005,
        "Time(s)": 10
    }
]